NORAD_CAT_ID,OBJECT_NAME,OBJECT_TYPE,EPOCH,MEAN_MOTION,ECCENTRICITY,INCLINATION,RA_OF_ASC_NODE,ARG_OF_PERICENTER,MEAN_ANOMALY,BSTAR,MEAN_MOTION_DOT,MEAN_MOTION_DDOT,TLE_LINE0,TLE_LINE1,TLE_LINE2,SEMIMAJOR_AXIS,PERIOD,APOGEE,PERIGEE,DECAYED
53712.0,STARLINK-4683,PAYLOAD,2023-04-20 12:26:53,15.08842238,0.0001085,53.2147,301.2298,91.6882,268.4235,0.00014306,1.99e-05,0.0,0 STARLINK-4683,1 53712U 22107N   23110.51867489  .00001990  00000-0  14306-3 0  9991,2 53712  53.2147 301.2298 0001085  91.6882 268.4235 15.08842238 35352,6917.874,95.437,540.489,538.988,0.0
53712.0,STARLINK-4683,PAYLOAD,2023-04-20 18:48:25,15.08845021,0.0001074,53.2153,300.0423,80.2209,279.8905,0.000143,1.989e-05,0.0,0 STARLINK-4683,1 53712U 22107N   23110.78363358  .00001989  00000-0  14300-3 0  9998,2 53712  53.2153 300.0423 0001074  80.2209 279.8905 15.08845021 34937,6917.865,95.437,540.473,538.987,0.0
53712.0,STARLINK-4683,PAYLOAD,2023-04-20 20:23:48,15.08847336,9.95e-05,53.2149,299.743,85.8567,274.2539,0.0001893,2.727e-05,0.0,0 STARLINK-4683,1 53712U 22107N   23110.84987243  .00002727  00000-0  18930-3 0  9994,2 53712  53.2149 299.7430 0000995  85.8567 274.2539 15.08847336 35409,6917.858,95.437,540.411,539.035,0.0
53712.0,STARLINK-4683,PAYLOAD,2023-04-21 18:39:13,15.08843342,0.00012,53.2156,295.5811,66.5471,293.5647,0.00015428,2.169e-05,0.0,0 STARLINK-4683,1 53712U 22107N   23111.77723613  .00002169  00000-0  15428-3 0  9995,2 53712  53.2156 295.5811 0001200  66.5471 293.5647 15.08843342 35085,6917.87,95.437,540.565,538.905,0.0
53712.0,STARLINK-4683,PAYLOAD,2023-04-22 05:46:55,15.08844809,0.000103,53.2161,293.4974,77.5396,282.5711,0.00017206,2.452e-05,0.0,0 STARLINK-4683,1 53712U 22107N   23112.24091468  .00002452  00000-0  17206-3 0  9995,2 53712  53.2161 293.4974 0001030  77.5396 282.5711 15.08844809 35615,6917.866,95.437,540.443,539.018,0.0
53712.0,STARLINK-4683,PAYLOAD,2023-04-22 20:05:22,15.08849183,9.91e-05,53.2155,290.8202,74.1038,286.0064,0.00021187,3.087e-05,0.0,0 STARLINK-4683,1 53712U 22107N   23112.83707163  .00003087  00000-0  21187-3 0  9994,2 53712  53.2155 290.8202 0000991  74.1038 286.0064 15.08849183 35243,6917.852,95.437,540.403,539.032,0.0
53712.0,STARLINK-4683,PAYLOAD,2023-04-23 19:56:10,15.08840543,0.0001286,53.2153,286.3546,150.2261,209.8804,6.0846e-05,6.81e-06,0.0,0 STARLINK-4683,1 53712U 22107N   23113.83067340  .00000681  00000-0  60846-4 0  9994,2 53712  53.2153 286.3546 0001286 150.2261 209.8804 15.08840543 35857,6917.879,95.438,540.633,538.854,0.0
53712.0,STARLINK-4683,PAYLOAD,2023-04-24 11:50:00,15.08869248,0.0001013,53.2163,283.3837,104.309,255.8015,0.00062246,9.64e-05,0.0,0 STARLINK-4683,1 53712U 22107N   23114.49306577  .00009640  00000-0  62246-3 0  9994,2 53712  53.2163 283.3837 0001013 104.3090 255.8015 15.08869248 35955,6917.791,95.436,540.357,538.955,0.0
53712.0,STARLINK-4683,PAYLOAD,2023-04-24 18:11:32,15.08904189,0.0001041,53.2152,282.1974,86.323,273.7881,0.0015427,0.00024393,0.0,0 STARLINK-4683,1 53712U 22107N   23114.75801463  .00024393  00000-0  15427-2 0  9997,2 53712  53.2152 282.1974 0001041  86.3230 273.7881 15.08904189 35536,6917.684,95.433,540.269,538.829,0.0
53712.0,STARLINK-4683,PAYLOAD,2023-04-25 11:40:48,15.0881144,0.0001644,53.2154,278.9239,125.8906,234.2239,-0.00094093,-0.0001522,0.0,0 STARLINK-4683,1 53712U 22107N   23115.48667766 -.00015220  00000-0 -94093-3 0  9992,2 53712  53.2154 278.9239 0001644 125.8906 234.2239 15.08811440 35641,6917.968,95.439,540.97,538.695,0.0
53712.0,STARLINK-4683,PAYLOAD,2023-04-25 19:37:46,15.08783252,7.85e-05,53.2161,277.4407,131.299,228.807,0.00050474,7.742e-05,0.0,0 STARLINK-4683,1 53712U 22107N   23115.81789390  .00007742  00000-0  50474-3 0  9990,2 53712  53.2161 277.4407 0000785 131.2990 228.8070 15.08783252 35695,6918.054,95.441,540.462,539.376,0.0
53712.0,STARLINK-4683,PAYLOAD,2023-04-26 13:07:00,15.08834924,0.0001018,53.2149,274.1687,103.9186,256.1919,0.0022123,0.00035091,0.0,0 STARLINK-4683,1 53712U 22107N   23116.54653634  .00035091  00000-0  22123-2 0  9999,2 53712  53.2149 274.1687 0001018 103.9186 256.1919 15.08834924 36261,6917.896,95.438,540.465,539.057,0.0
53712.0,STARLINK-4683,PAYLOAD,2023-04-27 09:47:00,15.08866445,0.0001798,53.2116,270.3047,87.7274,272.3924,0.00077282,0.00012042,0.0,0 STARLINK-4683,1 53712U 22107N   23117.40764509  .00012042  00000-0  77282-3 0  9997,2 53712  53.2116 270.3047 0001798  87.7274 272.3924 15.08866445 36398,6917.8,95.436,540.908,538.421,0.0
53712.0,STARLINK-4683,PAYLOAD,2023-04-27 17:43:55,15.08859026,0.0001494,53.2132,268.8149,96.6054,263.5108,0.00025833,3.828e-05,0.0,0 STARLINK-4683,1 53712U 22107N   23117.73884133  .00003828  00000-0  25833-3 0  9996,2 53712  53.2132 268.8149 0001494  96.6054 263.5108 15.08859026 35986,6917.822,95.436,540.721,538.654,0.0
53712.0,STARLINK-4683,PAYLOAD,2023-04-28 03:16:14,15.08850221,0.0001309,53.2145,267.0322,79.1274,280.9865,0.00013884,1.923e-05,0.0,0 STARLINK-4683,1 53712U 22107N   23118.13628235  .00001923  00000-0  13884-3 0  9997,2 53712  53.2145 267.0322 0001309  79.1274 280.9865 15.08850221 36048,6917.849,95.437,540.62,538.809,0.0
53712.0,STARLINK-4683,PAYLOAD,2023-04-28 09:37:47,15.08848955,0.0001608,53.214,265.8437,76.8024,283.3148,0.00018818,2.709e-05,0.0,0 STARLINK-4683,1 53712U 22107N   23118.40124329  .00002709  00000-0  18818-3 0  9997,2 53712  53.2140 265.8437 0001608  76.8024 283.3148 15.08848955 36542,6917.853,95.437,540.83,538.606,0.0
53712.0,STARLINK-4683,PAYLOAD,2023-04-29 03:07:01,15.08840775,9.67e-05,53.213,262.5738,53.5183,306.5898,0.00053456,8.23e-05,0.0,0 STARLINK-4683,1 53712U 22107N   23119.12988404  .00008230  00000-0  53456-3 0  9991,2 53712  53.2130 262.5738 0000967  53.5183 306.5898 15.08840775 36197,6917.878,95.438,540.412,539.074,0.0
53712.0,STARLINK-4683,PAYLOAD,2023-04-29 12:39:20,15.0884071,9.32e-05,53.2131,260.787,83.5659,276.5439,0.00035515,5.369e-05,0.0,0 STARLINK-4683,1 53712U 22107N   23119.52732485  .00005369  00000-0  35515-3 0  9997,2 53712  53.2131 260.7870 0000932  83.5659 276.5439 15.08840710 36712,6917.878,95.438,540.388,539.098,0.0
53712.0,STARLINK-4683,PAYLOAD,2023-04-30 14:05:30,15.08844018,0.0001134,53.2148,256.0284,81.0581,279.0539,0.00019375,2.797e-05,0.0,0 STARLINK-4683,1 53712U 22107N   23120.58716388  .00002797  00000-0  19375-3 0  9997,2 53712  53.2148 256.0284 0001134  81.0581 279.0539 15.08844018 36410,6917.868,95.437,540.518,538.949,0.0
53712.0,STARLINK-4683,PAYLOAD,2023-05-01 12:20:55,15.08838826,0.0001199,53.216,251.861,97.1578,262.9551,5.834e-05,6.41e-06,0.0,0 STARLINK-4683,1 53712U 22107N   23121.51452675  .00000641  00000-0  58340-4 0  9999,2 53712  53.2160 251.8610 0001199  97.1578 262.9551 15.08838826 37017,6917.884,95.438,540.578,538.92,0.0
53712.0,STARLINK-4683,PAYLOAD,2023-05-01 15:31:40,15.0885568,0.0001175,53.2158,251.2666,91.6842,268.4285,0.00025354,3.751e-05,0.0,0 STARLINK-4683,1 53712U 22107N   23121.64699688  .00003751  00000-0  25354-3 0  9993,2 53712  53.2158 251.2666 0001175  91.6842 268.4285 15.08855680 36578,6917.832,95.437,540.51,538.885,0.0
53712.0,STARLINK-4683,PAYLOAD,2023-05-01 17:07:03,15.08855811,0.0001259,53.2165,250.9689,123.8021,236.3091,0.0002546,3.768e-05,0.0,0 STARLINK-4683,1 53712U 22107N   23121.71324023  .00003768  00000-0  25460-3 0  9995,2 53712  53.2165 250.9689 0001259 123.8021 236.3091 15.08855811 37045,6917.832,95.437,540.568,538.826,0.0
53712.0,STARLINK-4683,PAYLOAD,2023-05-02 13:47:04,15.08839675,0.0001397,53.216,247.1051,107.7498,252.3646,3.6887e-06,-2.29e-06,0.0,0 STARLINK-4683,1 53712U 22107N   23122.57436294 -.00000229  00000-0  36887-5 0  9991,2 53712  53.2160 247.1051 0001397 107.7498 252.3646 15.08839675 36710,6917.881,95.438,540.713,538.78,0.0
53712.0,STARLINK-4683,PAYLOAD,2023-05-02 16:57:51,15.08840725,0.000131,53.2167,246.5112,106.1259,253.9877,4.0054e-05,3.5e-06,0.0,0 STARLINK-4683,1 53712U 22107N   23122.70684484  .00000350  00000-0  40054-4 0  9996,2 53712  53.2167 246.5112 0001310 106.1259 253.9877 15.08840725 37195,6917.878,95.438,540.649,538.837,0.0
53712.0,STARLINK-4683,PAYLOAD,2023-05-03 12:02:30,15.08829949,0.0001301,53.2169,242.9467,93.9568,266.1573,2.7217e-05,1.45e-06,0.0,0 STARLINK-4683,1 53712U 22107N   23123.50173633  .00000145  00000-0  27217-4 0  9992,2 53712  53.2169 242.9467 0001301  93.9568 266.1573 15.08829949 36852,6917.911,95.438,540.676,538.876,0.0
53712.0,STARLINK-4683,PAYLOAD,2023-05-03 13:37:53,15.08830267,0.000131,53.2167,242.6491,92.8068,267.3074,2.6059e-05,1.27e-06,0.0,0 STARLINK-4683,1 53712U 22107N   23123.56797630  .00000127  00000-0  26059-4 0  9990,2 53712  53.2167 242.6491 0001310  92.8068 267.3074 15.08830267 37324,6917.91,95.438,540.681,538.869,0.0
53712.0,STARLINK-4683,PAYLOAD,2023-05-03 16:48:39,15.08832512,0.0001481,53.2178,242.0524,86.4027,273.7135,3.6224e-05,2.88e-06,0.0,0 STARLINK-4683,1 53712U 22107N   23123.70045536  .00000288  00000-0  36224-4 0  9990,2 53712  53.2178 242.0524 0001481  86.4027 273.7135 15.08832512 37346,6917.903,95.438,540.793,538.744,0.0
53712.0,STARLINK-4683,PAYLOAD,2023-05-04 00:45:34,15.08844611,0.0001435,53.2178,240.5658,84.5807,275.5349,-0.00013395,-2.419e-05,0.0,0 STARLINK-4683,1 53712U 22107N   23124.03165078 -.00002419  00000-0 -13395-3 0  9994,2 53712  53.2178 240.5658 0001435  84.5807 275.5349 15.08844611 36935,6917.866,95.437,540.724,538.739,0.0
53712.0,STARLINK-4683,PAYLOAD,2023-05-04 13:28:40,15.08823889,0.0001549,53.2171,238.1877,90.3822,269.7347,0.00025962,3.844e-05,0.0,0 STARLINK-4683,1 53712U 22107N   23124.56157729  .00003844  00000-0  25962-3 0  9990,2 53712  53.2171 238.1877 0001549  90.3822 269.7347 15.08823889 37019,6917.93,95.439,540.866,538.723,0.0
53712.0,STARLINK-4683,PAYLOAD,2023-05-04 16:39:25,15.08839451,0.0001439,53.2173,237.5928,88.704,271.4117,0.00016029,2.264e-05,0.0,0 STARLINK-4683,1 53712U 22107N   23124.69405052  .00002264  00000-0  16029-3 0  9998,2 53712  53.2173 237.5928 0001439  88.7040 271.4117 15.08839451 37031,6917.882,95.438,540.743,538.752,0.0
